HAWK-11A                
1 62382U 24247F   26068.51231358  .00009457  00000+0  34106-3 0  9991
2 62382  44.9941 114.3328 0005466 327.3713  32.6832 15.28849427 67741
STARLINK-32899          
1 62994U 25031P   26068.18533830  .00028602  00000+0  10440-2 0  9992
2 62994  42.9974 146.5747 0003742 291.0708  68.9743 15.27602946 61011
